CCSDS_OMM_VERS = 2.0
CREATION_DATE  = 
ORIGINATOR     = 

OBJECT_NAME    = COSMOS 1933
OBJECT_ID      = 1988-020A
CENTER_NAME    = EARTH
REF_FRAME      = TEME
TIME_SYSTEM    = UTC
MEAN_ELEMENT_THEORY = SGP/SGP4

EPOCH          = 2026-02-14T15:37:18.135840
MEAN_MOTION    = 15.17777331
ECCENTRICITY   = .0002681
INCLINATION    = 82.5114
RA_OF_ASC_NODE = 273.7075
ARG_OF_PERICENTER = 292.3692
MEAN_ANOMALY   = 67.7257

EPHEMERIS_TYPE = 0
CLASSIFICATION_TYPE = U
NORAD_CAT_ID   = 18958
ELEMENT_SET_NO = 999
REV_AT_EPOCH   = 4673
BSTAR          = .18259E-3
MEAN_MOTION_DOT = .3717E-4
MEAN_MOTION_DDOT = 0

CCSDS_OMM_VERS = 2.0
CREATION_DATE  = 
ORIGINATOR     = 

OBJECT_NAME    = SL-3 R/B
OBJECT_ID      = 1988-032B
CENTER_NAME    = EARTH
REF_FRAME      = TEME
TIME_SYSTEM    = UTC
MEAN_ELEMENT_THEORY = SGP/SGP4

EPOCH          = 2026-02-14T14:55:39.363168
MEAN_MOTION    = 15.19608630
ECCENTRICITY   = .0024793
INCLINATION    = 97.5152
RA_OF_ASC_NODE = 28.9662
ARG_OF_PERICENTER = 317.9362
MEAN_ANOMALY   = 41.9968

EPHEMERIS_TYPE = 0
CLASSIFICATION_TYPE = U
NORAD_CAT_ID   = 19046
ELEMENT_SET_NO = 999
REV_AT_EPOCH   = 4860
BSTAR          = .2784E-3
MEAN_MOTION_DOT = .5906E-4
MEAN_MOTION_DDOT = 0

CCSDS_OMM_VERS = 2.0
CREATION_DATE  = 
ORIGINATOR     = 

OBJECT_NAME    = SL-16 R/B
OBJECT_ID      = 1988-039B
CENTER_NAME    = EARTH
REF_FRAME      = TEME
TIME_SYSTEM    = UTC
MEAN_ELEMENT_THEORY = SGP/SGP4

EPOCH          = 2026-02-14T14:04:49.589184
MEAN_MOTION    = 14.19612673
ECCENTRICITY   = .0021329
INCLINATION    = 71.0145
RA_OF_ASC_NODE = 117.4026
ARG_OF_PERICENTER = 9.4091
MEAN_ANOMALY   = 350.7429

EPHEMERIS_TYPE = 0
CLASSIFICATION_TYPE = U
NORAD_CAT_ID   = 19120
ELEMENT_SET_NO = 999
REV_AT_EPOCH   = 95510
BSTAR          = .10789E-3
MEAN_MOTION_DOT = .18E-5
MEAN_MOTION_DDOT = 0

CCSDS_OMM_VERS = 2.0
CREATION_DATE  = 
ORIGINATOR     = 

OBJECT_NAME    = COSMOS 1953
OBJECT_ID      = 1988-050A
CENTER_NAME    = EARTH
REF_FRAME      = TEME
TIME_SYSTEM    = UTC
MEAN_ELEMENT_THEORY = SGP/SGP4

EPOCH          = 2026-02-14T15:27:17.657568
MEAN_MOTION    = 15.28061788
ECCENTRICITY   = .0011014
INCLINATION    = 82.5095
RA_OF_ASC_NODE = 181.4106
ARG_OF_PERICENTER = 200.4959
MEAN_ANOMALY   = 159.5840

EPHEMERIS_TYPE = 0
CLASSIFICATION_TYPE = U
NORAD_CAT_ID   = 19210
ELEMENT_SET_NO = 999
REV_AT_EPOCH   = 3426
BSTAR          = .33158E-3
MEAN_MOTION_DOT = .9121E-4
MEAN_MOTION_DDOT = 0

CCSDS_OMM_VERS = 2.0
CREATION_DATE  = 
ORIGINATOR     = 

OBJECT_NAME    = SL-8 R/B
OBJECT_ID      = 1988-053B
CENTER_NAME    = EARTH
REF_FRAME      = TEME
TIME_SYSTEM    = UTC
MEAN_ELEMENT_THEORY = SGP/SGP4

EPOCH          = 2026-02-14T15:38:06.880128
MEAN_MOTION    = 14.38901648
ECCENTRICITY   = .0020663
INCLINATION    = 74.0485
RA_OF_ASC_NODE = 154.9281
ARG_OF_PERICENTER = 338.3345
MEAN_ANOMALY   = 123.2091

EPHEMERIS_TYPE = 0
CLASSIFICATION_TYPE = U
NORAD_CAT_ID   = 19257
ELEMENT_SET_NO = 999
REV_AT_EPOCH   = 97328
BSTAR          = .8447E-4
MEAN_MOTION_DOT = .234E-5
MEAN_MOTION_DDOT = 0

CCSDS_OMM_VERS = 2.0
CREATION_DATE  = 
ORIGINATOR     = 

OBJECT_NAME    = COSMOS 1975
OBJECT_ID      = 1988-093A
CENTER_NAME    = EARTH
REF_FRAME      = TEME
TIME_SYSTEM    = UTC
MEAN_ELEMENT_THEORY = SGP/SGP4

EPOCH          = 2026-02-14T08:15:06.103296
MEAN_MOTION    = 15.27665864
ECCENTRICITY   = .0010333
INCLINATION    = 82.5222
RA_OF_ASC_NODE = 141.1075
ARG_OF_PERICENTER = 249.3887
MEAN_ANOMALY   = 110.6245

EPHEMERIS_TYPE = 0
CLASSIFICATION_TYPE = U
NORAD_CAT_ID   = 19573
ELEMENT_SET_NO = 999
REV_AT_EPOCH   = 1584
BSTAR          = .37177E-3
MEAN_MOTION_DOT = .10099E-3
MEAN_MOTION_DDOT = 0

CCSDS_OMM_VERS = 2.0
CREATION_DATE  = 
ORIGINATOR     = 

OBJECT_NAME    = SL-14 R/B
OBJECT_ID      = 1988-093B
CENTER_NAME    = EARTH
REF_FRAME      = TEME
TIME_SYSTEM    = UTC
MEAN_ELEMENT_THEORY = SGP/SGP4

EPOCH          = 2026-02-14T13:44:01.796928
MEAN_MOTION    = 14.85629102
ECCENTRICITY   = .0022201
INCLINATION    = 82.5278
RA_OF_ASC_NODE = 63.7509
ARG_OF_PERICENTER = 113.0123
MEAN_ANOMALY   = 12.0365

EPHEMERIS_TYPE = 0
CLASSIFICATION_TYPE = U
NORAD_CAT_ID   = 19574
ELEMENT_SET_NO = 999
REV_AT_EPOCH   = 99760
BSTAR          = .5171E-4
MEAN_MOTION_DOT = .474E-5
MEAN_MOTION_DDOT = 0

CCSDS_OMM_VERS = 2.0
CREATION_DATE  = 
ORIGINATOR     = 

OBJECT_NAME    = SL-16 R/B
OBJECT_ID      = 1988-102B
CENTER_NAME    = EARTH
REF_FRAME      = TEME
TIME_SYSTEM    = UTC
MEAN_ELEMENT_THEORY = SGP/SGP4

EPOCH          = 2026-02-14T14:17:21.056640
MEAN_MOTION    = 14.16150732
ECCENTRICITY   = .0012707
INCLINATION    = 70.9986
RA_OF_ASC_NODE = 200.0853
ARG_OF_PERICENTER = 38.9535
MEAN_ANOMALY   = 321.2501

EPHEMERIS_TYPE = 0
CLASSIFICATION_TYPE = U
NORAD_CAT_ID   = 19650
ELEMENT_SET_NO = 999
REV_AT_EPOCH   = 92362
BSTAR          = .13602E-3
MEAN_MOTION_DOT = .222E-5
MEAN_MOTION_DDOT = 0

CCSDS_OMM_VERS = 2.0
CREATION_DATE  = 
ORIGINATOR     = 

OBJECT_NAME    = INTERCOSMOS 24
OBJECT_ID      = 1989-080A
CENTER_NAME    = EARTH
REF_FRAME      = TEME
TIME_SYSTEM    = UTC
MEAN_ELEMENT_THEORY = SGP/SGP4

EPOCH          = 2026-02-14T14:37:50.735136
MEAN_MOTION    = 12.59524441
ECCENTRICITY   = .1187669
INCLINATION    = 82.6058
RA_OF_ASC_NODE = 119.4287
ARG_OF_PERICENTER = 346.4279
MEAN_ANOMALY   = 10.7272

EPHEMERIS_TYPE = 0
CLASSIFICATION_TYPE = U
NORAD_CAT_ID   = 20261
ELEMENT_SET_NO = 999
REV_AT_EPOCH   = 66389
BSTAR          = .15339E-3
MEAN_MOTION_DOT = .528E-5
MEAN_MOTION_DDOT = 0

CCSDS_OMM_VERS = 2.0
CREATION_DATE  = 
ORIGINATOR     = 

OBJECT_NAME    = SL-14 R/B
OBJECT_ID      = 1989-080C
CENTER_NAME    = EARTH
REF_FRAME      = TEME
TIME_SYSTEM    = UTC
MEAN_ELEMENT_THEORY = SGP/SGP4

EPOCH          = 2026-02-14T10:19:48.770112
MEAN_MOTION    = 12.50463897
ECCENTRICITY   = .122958
INCLINATION    = 82.5952
RA_OF_ASC_NODE = 188.1159
ARG_OF_PERICENTER = 237.9287
MEAN_ANOMALY   = 109.6643

EPHEMERIS_TYPE = 0
CLASSIFICATION_TYPE = U
NORAD_CAT_ID   = 20262
ELEMENT_SET_NO = 999
REV_AT_EPOCH   = 65724
BSTAR          = .15988E-3
MEAN_MOTION_DOT = .53E-5
MEAN_MOTION_DDOT = 0

CCSDS_OMM_VERS = 2.0
CREATION_DATE  = 
ORIGINATOR     = 

OBJECT_NAME    = DELTA 1 R/B
OBJECT_ID      = 1989-089B
CENTER_NAME    = EARTH
REF_FRAME      = TEME
TIME_SYSTEM    = UTC
MEAN_ELEMENT_THEORY = SGP/SGP4

EPOCH          = 2026-02-14T13:58:57.136800
MEAN_MOTION    = 14.50643567
ECCENTRICITY   = .0068662
INCLINATION    = 97.0722
RA_OF_ASC_NODE = 256.6940
ARG_OF_PERICENTER = 194.5517
MEAN_ANOMALY   = 165.3706

EPHEMERIS_TYPE = 0
CLASSIFICATION_TYPE = U
NORAD_CAT_ID   = 20323
ELEMENT_SET_NO = 999
REV_AT_EPOCH   = 89238
BSTAR          = .9753E-4
MEAN_MOTION_DOT = .359E-5
MEAN_MOTION_DDOT = 0

CCSDS_OMM_VERS = 2.0
CREATION_DATE  = 
ORIGINATOR     = 

OBJECT_NAME    = ARIANE 40 R/B
OBJECT_ID      = 1990-005H
CENTER_NAME    = EARTH
REF_FRAME      = TEME
TIME_SYSTEM    = UTC
MEAN_ELEMENT_THEORY = SGP/SGP4

EPOCH          = 2026-02-14T14:28:51.852288
MEAN_MOTION    = 14.39854746
ECCENTRICITY   = .0008873
INCLINATION    = 98.3135
RA_OF_ASC_NODE = 106.9467
ARG_OF_PERICENTER = 274.0207
MEAN_ANOMALY   = 85.9967

EPHEMERIS_TYPE = 0
CLASSIFICATION_TYPE = U
NORAD_CAT_ID   = 20443
ELEMENT_SET_NO = 999
REV_AT_EPOCH   = 88948
BSTAR          = .10106E-3
MEAN_MOTION_DOT = .275E-5
MEAN_MOTION_DDOT = 0

