COSMOS 1933             
1 18958U 88020A   26045.65090435  .00003717  00000+0  18259-3 0  9993
2 18958  82.5114 273.7075 0002681 292.3692  67.7257 15.17777331 46731
SL-3 R/B                
1 19046U 88032B   26045.62198337  .00005906  00000+0  27840-3 0  9990
2 19046  97.5152  28.9662 0024793 317.9362  41.9968 15.19608630 48604
SL-16 R/B               
1 19120U 88039B   26045.58668506  .00000180  00000+0  10789-3 0  9998
2 19120  71.0145 117.4026 0021329   9.4091 350.7429 14.19612673955104
COSMOS 1953             
1 19210U 88050A   26045.64395437  .00009121  00000+0  33158-3 0  9997
2 19210  82.5095 181.4106 0011014 200.4959 159.5840 15.28061788 34264
SL-8 R/B                
1 19257U 88053B   26045.65146852  .00000234  00000+0  84470-4 0  9997
2 19257  74.0485 154.9281 0020663 338.3345 123.2091 14.38901648973281
COSMOS 1975             
1 19573U 88093A   26045.34382064  .00010099  00000+0  37177-3 0  9996
2 19573  82.5222 141.1075 0010333 249.3887 110.6245 15.27665864 15845
SL-14 R/B               
1 19574U 88093B   26045.57224302  .00000474  00000+0  51710-4 0  9998
2 19574  82.5278  63.7509 0022201 113.0123  12.0365 14.85629102997604
SL-16 R/B               
1 19650U 88102B   26045.59538260  .00000222  00000+0  13602-3 0  9995
2 19650  70.9986 200.0853 0012707  38.9535 321.2501 14.16150732923626
INTERCOSMOS 24          
1 20261U 89080A   26045.60961499  .00000528  00000+0  15339-3 0  9995
2 20261  82.6058 119.4287 1187669 346.4279  10.7272 12.59524441663895
SL-14 R/B               
1 20262U 89080C   26045.43042558  .00000530  00000+0  15988-3 0  9996
2 20262  82.5952 188.1159 1229580 237.9287 109.6643 12.50463897657241
DELTA 1 R/B             
1 20323U 89089B   26045.58260575  .00000359  00000+0  97530-4 0  9993
2 20323  97.0722 256.6940 0068662 194.5517 165.3706 14.50643567892380
ARIANE 40 R/B           
1 20443U 90005H   26045.60337792  .00000275  00000+0  10106-3 0  9995
2 20443  98.3135 106.9467 0008873 274.0207  85.9967 14.39854746889487
